0 COSMOS 2251 DEB
1 34875U 93036ACN 13283.25806978  .00000719  00000-0  23967-3 0  6297
2 34875 074.0476 123.0706 0018401 272.7090 206.9236 14.39314852236501
0 COSMOS 2251 DEB
1 34875U 93036ACN 13285.60886358  .00000743  00000-0  24722-3 0  6307
2 34875 074.0475 118.7347 0018378 268.0477 147.3899 14.39317822236842
0 COSMOS 2251 DEB
1 34875U 93036ACN 13288.95836059  .00000980  00000-0  32338-3 0  6317
2 34875 074.0476 112.5564 0018355 261.4949 222.5321 14.39325671237323
0 COSMOS 2251 DEB
1 34875U 93036ACN 13291.58779256  .00000991  00000-0  32682-3 0  6320
2 34875 074.0479 107.7062 0018353 256.3703 166.7667 14.39330616237703
0 COSMOS 2251 DEB
1 34875U 93036ACN 13293.81184380  .00001286  00000-0  42161-3 0  6338
2 34875 074.0487 103.6055 0018296 252.1116 170.5155 14.39335013238024
0 COSMOS 2251 DEB
1 34875U 93036ACN 13295.91441894  .00001416  00000-0  46309-3 0  6341
2 34875 074.0482 099.7261 0018255 247.7593 265.2049 14.39340926238323
